EUTELSAT HOTBIRD 13F    
1 54048U 22134A   26180.51967152  .00000098  00000+0  00000+0 0  9991
2 54048   0.0528 291.1819 0002189  78.3528 108.1723  1.00267799 13504
LDPE-2                  
1 54219U 22144A   26180.41919757  .00000108  00000+0  00000+0 0  9991
2 54219   5.6413  63.5534 0002184  93.5894 125.4006  1.00538877 11965
EUTELSAT HOTBIRD 13G    
1 54225U 22146A   26180.34836257  .00000092  00000+0  00000+0 0  9997
2 54225   0.0630 218.2806 0002246 240.0803 317.4798  1.00227756  7586
ZHONGXING-19            
1 54230U 22148A   26180.50947318 -.00000070  00000+0  00000+0 0  9991
2 54230   0.0377  80.4485 0002925  35.9362 147.8305  1.00272805 13500
GALAXY 31 (G-31)        
1 54243U 22153A   26180.49323806  .00000000  00000+0  00000+0 0  9991
2 54243   0.0243  47.0206 0001637  49.4706 237.6440  1.00270323  7253
GALAXY 32 (G-32)        
1 54244U 22153B   26180.28503580 -.00000164  00000+0  00000+0 0  9990
2 54244   0.0113  16.6707 0002394  35.5222 236.7920  1.00277877 13260
EUTELSAT 10B            
1 54259U 22157A   26180.51906484  .00000079  00000+0  00000+0 0  9990
2 54259   0.0624  97.2655 0002227 349.6606  27.5158  1.00271484 13155
GALAXY 35 (G-35)        
1 54741U 22170A   26180.49869808  .00000000  00000+0  00000+0 0  9990
2 54741   0.0226  38.6975 0002213  59.5522 265.7484  1.00268939 13016
GALAXY 36 (G-36)        
1 54742U 22170B   26180.49956476 -.00000174  00000+0  00000+0 0  9992
2 54742   0.0111 312.5732 0002907 139.2890 276.5610  1.00271185 12892
METEOSAT-12 (MTG-I1)    
1 54743U 22170C   26180.37451588  .00000004  00000+0  00000+0 0  9995
2 54743   0.7516  24.8778 0003682  72.8347 314.2767  1.00275888 13104
SHIJIAN-23 (SJ-23)      
1 55131U 23002A   26179.77545213 -.00000295  00000+0  00000+0 0  9996
2 55131   3.7462  78.1751 0003650 279.9009 338.3384  1.00085154 12625
APSTAR-6E               
1 55239U 23005A   26179.90215764 -.00000307  00000+0  00000+0 0  9992
2 55239   0.0450 240.4484 0000482 288.7986 206.5240  1.00268712 18806
USA 342                 
1 55263U 23008A   26178.74678580  .00000000  00000+0  00000+0 0  9991
2 55263   0.0068  21.1845 0000542 140.6398  46.7067  1.00269221 12624
LDPE-3A                 
1 55264U 23008B   26180.40253038  .00000002  00000+0  00000+0 0  9997
2 55264   2.3785  81.5240 0001556  53.5003 128.8755  0.99149765 11932
ELEKTRO-L 4             
1 55506U 23016A   26179.77043605 -.00000047  00000+0  00000+0 0  9990
2 55506   0.0868 145.1994 0001031  38.0208 176.7747  1.00271544 12459
AMAZONAS NEXUS          
1 55508U 23017A   26180.50511145 -.00000271  00000+0  00000+0 0  9994
2 55508   0.0359  38.3610 0005134  38.3057 321.7592  1.00269838  7162
LUCH-5X (OLYMP-K 2)     
1 55841U 23031A   26179.73864155  .00000045  00000+0  00000+0 0  9993
2 55841   0.0320  84.8797 0001129 156.7270   3.1066  1.00272194 12054
SES-18                  
1 55970U 23038A   26180.25016852 -.00000090  00000+0  00000+0 0  9996
2 55970   0.0458 272.3091 0000799 240.2777 111.7084  1.00271151 12220
SES-19                  
1 55971U 23038B   26180.49046470  .00000099  00000+0  00000+0 0  9990
2 55971   0.0117 356.8757 0002023 103.8415 218.5175  1.00273576 12214
INTELSAT 40E (IS-40E)   
1 56174U 23052A   26180.14258964  .00000000  00000+0  00000+0 0  9999
2 56174   0.0204  33.7357 0002551  94.4319 109.3999  1.00269367 11941
VIASAT-3 F1             
1 56370U 23060A   26180.49956476  .00000000  00000+0  00000+0 0  9997
2 56370   0.0217   2.9666 0000976 103.7055 261.7677  1.00270590 11557
ARCTURUS                
1 56371U 23060B   26177.89485947 -.00000176  00000+0  00000+0 0  9993
2 56371   2.7990  79.8193 0000384 207.4908  27.3984  1.00599177 11557
GS-1                    
1 56372U 23060C   26179.77554896 -.00000215  00000+0  00000+0 0  9997
2 56372   2.7547  79.6994 0003657 279.7927 286.0267  1.00271366  7653
BEIDOU-3 G4             
1 56564U 23066A   26180.54494617 -.00000270  00000+0  00000+0 0  9998
2 56564   0.4735 334.5980 0004938 175.4889 103.7638  1.00270148 11514
ARABSAT-7B (BADR-8)     
1 56757U 23075A   26180.16588571  .00000155  00000+0  00000+0 0  9994
2 56757   0.0756  29.3964 0004629 357.4986 336.0638  1.00260911 11232
NVS-01 (IRNSS-1J)       
1 56759U 23076A   26180.55044823 -.00000323  00000+0  00000+0 0  9995
2 56759   2.1380 243.7873 0002820  10.2064 351.3640  1.00273540 11249
NUSANTARA TIGA (SATRIA) 
1 57045U 23086A   26180.26090531 -.00000224  00000+0  00000+0 0  9990
2 57045   0.0363   1.0805 0002598 343.9477 172.2409  1.00269034  9885
H2SAT (HEINRICH HERTZ)  
1 57213U 23093A   26179.94701973  .00000012  00000+0  00000+0 0  9991
2 57213   0.0353 101.7283 0001312  39.0645 117.8751  1.00266150 11033
SYRACUSE 4B             
1 57214U 23093B   26180.16042566  .00000000  00000+0  00000+0 0  9991
2 57214   0.0261  31.1158 0001499 255.0521  42.3631  1.00239569  7081
