OBJECT_NAME,OBJECT_ID,EPOCH,MEAN_MOTION,ECCENTRICITY,INCLINATION,RA_OF_ASC_NODE,ARG_OF_PERICENTER,MEAN_ANOMALY,EPHEMERIS_TYPE,CLASSIFICATION_TYPE,NORAD_CAT_ID,ELEMENT_SET_NO,REV_AT_EPOCH,BSTAR,MEAN_MOTION_DOT,MEAN_MOTION_DDOT
EUTELSAT HOTBIRD 13F,2022-134A,2026-06-29T12:28:19.619328,1.00267799,.0002189,0.0528,291.1819,78.3528,108.1723,0,U,54048,999,1350,0,.98E-6,0
LDPE-2,2022-144A,2026-06-29T10:03:38.670048,1.00538877,.0002184,5.6413,63.5534,93.5894,125.4006,0,U,54219,999,1196,0,.108E-5,0
EUTELSAT HOTBIRD 13G,2022-146A,2026-06-29T08:21:38.526048,1.00227756,.0002246,0.0630,218.2806,240.0803,317.4798,0,U,54225,999,758,0,.92E-6,0
ZHONGXING-19,2022-148A,2026-06-29T12:13:38.482752,1.00272805,.0002925,0.0377,80.4485,35.9362,147.8305,0,U,54230,999,1350,0,-.7E-6,0
GALAXY 31 (G-31),2022-153A,2026-06-29T11:50:15.768384,1.00270323,.0001637,0.0243,47.0206,49.4706,237.6440,0,U,54243,999,725,0,0,0
GALAXY 32 (G-32),2022-153B,2026-06-29T06:50:27.093120,1.00277877,.0002394,0.0113,16.6707,35.5222,236.7920,0,U,54244,999,1326,0,-.164E-5,0
EUTELSAT 10B,2022-157A,2026-06-29T12:27:27.202176,1.00271484,.0002227,0.0624,97.2655,349.6606,27.5158,0,U,54259,999,1315,0,.79E-6,0
GALAXY 35 (G-35),2022-170A,2026-06-29T11:58:07.514112,1.00268939,.0002213,0.0226,38.6975,59.5522,265.7484,0,U,54741,999,1301,0,0,0
GALAXY 36 (G-36),2022-170B,2026-06-29T11:59:22.395264,1.00271185,.0002907,0.0111,312.5732,139.2890,276.5610,0,U,54742,999,1289,0,-.174E-5,0
METEOSAT-12 (MTG-I1),2022-170C,2026-06-29T08:59:18.172032,1.00275888,.0003682,0.7516,24.8778,72.8347,314.2767,0,U,54743,999,1310,0,.4E-7,0
SHIJIAN-23 (SJ-23),2023-002A,2026-06-28T18:36:39.064032,1.00085154,.000365,3.7462,78.1751,279.9009,338.3384,0,U,55131,999,1262,0,-.295E-5,0
APSTAR-6E,2023-005A,2026-06-28T21:39:06.420096,1.00268712,.00004824,0.0450,240.4484,288.7986,206.5240,0,U,55239,999,1880,0,-.307E-5,0
USA 342,2023-008A,2026-06-27T17:55:22.293120,1.00269221,.0000542,0.0068,21.1845,140.6398,46.7067,0,U,55263,999,1262,0,0,0
LDPE-3A,2023-008B,2026-06-29T09:39:38.624832,0.99149765,.0001556,2.3785,81.5240,53.5003,128.8755,0,U,55264,999,1193,0,.2E-7,0
ELEKTRO-L 4,2023-016A,2026-06-28T18:29:25.674720,1.00271544,.0001031,0.0868,145.1994,38.0208,176.7747,0,U,55506,999,1245,0,-.47E-6,0
AMAZONAS NEXUS,2023-017A,2026-06-29T12:07:21.629280,1.00269838,.0005134,0.0359,38.3610,38.3057,321.7592,0,U,55508,999,716,0,-.271E-5,0
LUCH-5X (OLYMP-K 2),2023-031A,2026-06-28T17:43:38.629920,1.00272194,.0001129,0.0320,84.8797,156.7270,3.1066,0,U,55841,999,1205,0,.45E-6,0
SES-18,2023-038A,2026-06-29T06:00:14.560128,1.00271151,.0000799,0.0458,272.3091,240.2777,111.7084,0,U,55970,999,1222,0,-.9E-6,0
SES-19,2023-038B,2026-06-29T11:46:16.150080,1.00273576,.0002023,0.0117,356.8757,103.8415,218.5175,0,U,55971,999,1221,0,.99E-6,0
INTELSAT 40E (IS-40E),2023-052A,2026-06-29T03:25:19.744896,1.00269367,.0002551,0.0204,33.7357,94.4319,109.3999,0,U,56174,999,1194,0,0,0
VIASAT-3 F1,2023-060A,2026-06-29T11:59:22.395264,1.00270590,.0000976,0.0217,2.9666,103.7055,261.7677,0,U,56370,999,1155,0,0,0
ARCTURUS,2023-060B,2026-06-26T21:28:35.858208,1.00599177,.0000384,2.7990,79.8193,207.4908,27.3984,0,U,56371,999,1155,0,-.176E-5,0
GS-1,2023-060C,2026-06-28T18:36:47.430144,1.00271366,.00036576,2.7547,79.6994,279.7927,286.0267,0,U,56372,999,765,0,-.215E-5,0
BEIDOU-3 G4,2023-066A,2026-06-29T13:04:43.349088,1.00270148,.0004938,0.4735,334.5980,175.4889,103.7638,0,U,56564,999,1151,0,-.27E-5,0
ARABSAT-7B (BADR-8),2023-075A,2026-06-29T03:58:52.525344,1.00260911,.0004629,0.0756,29.3964,357.4986,336.0638,0,U,56757,999,1123,0,.155E-5,0
NVS-01 (IRNSS-1J),2023-076A,2026-06-29T13:12:38.727072,1.00273540,.000282,2.1380,243.7873,10.2064,351.3640,0,U,56759,999,1124,0,-.323E-5,0
NUSANTARA TIGA (SATRIA),2023-086A,2026-06-29T06:15:42.218784,1.00269034,.0002598,0.0363,1.0805,343.9477,172.2409,0,U,57045,999,988,0,-.224E-5,0
H2SAT (HEINRICH HERTZ),2023-093A,2026-06-28T22:43:42.504672,1.00266150,.00013123,0.0353,101.7283,39.0645,117.8751,0,U,57213,999,1103,0,.12E-6,0
SYRACUSE 4B,2023-093B,2026-06-29T03:51:00.777024,1.00239569,.0001499,0.0261,31.1158,255.0521,42.3631,0,U,57214,999,708,0,0,0
